H1 CPF 01  gfz 2021 09 25 00  7681 tandemx   
H2 1003001  6202 36605    2021 09 25 00 59 42 2021 09 30 00 00 42   120 1 1  0 0 0
H9
10 0 59482  86382.000000  0    -307064.757   6595971.861   1956552.846
10 0 59483    102.000000  0    -133977.263   6802549.698   1074686.653
10 0 59483    222.000000  0      43997.125   6887138.208    173898.423
10 0 59483    342.000000  0     221599.363   6848265.292   -729951.885
10 0 59483    462.000000  0     393575.517   6686731.735  -1620965.400
10 0 59483    582.000000  0     554808.906   6405588.895  -2483492.405
10 0 59483    702.000000  0     700448.224   6010072.846  -3302412.750
10 0 59483    822.000000  0     826029.461   5507496.618  -4063404.145
10 0 59483    942.000000  0     927588.027   4907102.778  -4753192.736
10 0 59483   1062.000000  0    1001758.583   4219880.907  -5359780.680
10 0 59483   1182.000000  0    1045860.293   3458355.629  -5872647.174
10 0 59483   1302.000000  0    1057965.358   2636350.134  -6282921.491
10 0 59483   1422.000000  0    1036950.336   1768729.858  -6583524.543
10 0 59483   1542.000000  0     982529.228    871133.776  -6769279.429
10 0 59483   1662.000000  0     895268.014    -40304.550  -6836992.028
10 0 59483   1782.000000  0     776580.800   -949242.028  -6785499.604
10 0 59483   1902.000000  0     628706.844  -1839412.139  -6615686.941
10 0 59483   2022.000000  0     454670.105  -2694907.102  -6330472.469
10 0 59483   2142.000000  0     258220.774  -3500456.529  -5934766.189
10 0 59483   2262.000000  0      43759.189  -4241698.345  -5435393.398
10 0 59483   2382.000000  0    -183755.155  -4905434.917  -4840987.578
10 0 59483   2502.000000  0    -418909.729  -5479872.779  -4161853.054
10 0 59483   2622.000000  0    -655958.198  -5954840.840  -3409796.780
10 0 59483   2742.000000  0    -888950.130  -6321981.357  -2597930.972
10 0 59483   2862.000000  0   -1111868.770  -6574909.669  -1740449.844
10 0 59483   2982.000000  0   -1318773.535  -6709338.640   -852382.067
10 0 59483   3102.000000  0   -1503943.612  -6723162.285     50676.076
10 0 59483   3222.000000  0   -1662019.293  -6616496.354    952840.668
10 0 59483   3342.000000  0   -1788137.661  -6391674.632   1838227.639
10 0 59483   3462.000000  0   -1878058.577  -6053200.275   2691241.793
10 0 59483   3582.000000  0   -1928277.363  -5607652.705   3496860.384
10 0 59483   3702.000000  0   -1936121.237  -5063553.124   4240904.244
10 0 59483   3822.000000  0   -1899827.075  -4431193.155   4910290.675
10 0 59483   3942.000000  0   -1818600.019  -3722431.783   5493264.391
10 0 59483   4062.000000  0   -1692650.849  -2950463.112   5979603.144
10 0 59483   4182.000000  0   -1523210.224  -2129562.049   6360791.616
10 0 59483   4302.000000  0   -1312521.014  -1274815.799   6630164.113
10 0 59483   4422.000000  0   -1063809.988   -401843.270   6783015.721
10 0 59483   4542.000000  0    -781239.120    473491.739   6816678.474
10 0 59483   4662.000000  0    -469836.069   1335367.895   6730565.480
10 0 59483   4782.000000  0    -135404.509   2168292.094   6526180.837
10 0 59483   4902.000000  0     215583.807   2957377.827   6207094.730
10 0 59483   5022.000000  0     576112.974   3688611.601   5778884.882
10 0 59483   5142.000000  0     938761.020   4349104.873   5249044.633
10 0 59483   5262.000000  0    1295850.477   4927326.202   4626857.734
10 0 59483   5382.000000  0    1639608.368   5413309.730   3923240.420
10 0 59483   5502.000000  0    1962332.346   5798834.766   3150555.390
10 0 59483   5622.000000  0    2256561.390   6077575.968   2322395.920
10 0 59483   5742.000000  0    2515243.228   6245215.600   1453342.846
10 0 59483   5862.000000  0    2731897.201   6299515.438    558701.578
10 0 59483   5982.000000  0    2900765.901   6240345.695   -345774.892
10 0 59483   6102.000000  0    3016953.983   6069672.847  -1244171.215
10 0 59483   6222.000000  0    3076550.119   5791504.917  -2120697.853
10 0 59483   6342.000000  0    3076728.680   5411796.769  -2959975.611
10 0 59483   6462.000000  0    3015828.858   4938316.809  -3747311.186
10 0 59483   6582.000000  0    2893408.471   4380478.770  -4468955.874
10 0 59483   6702.000000  0    2710272.238   3749145.626  -5112342.974
10 0 59483   6822.000000  0    2468474.638   3056409.877  -5666300.363
10 0 59483   6942.000000  0    2171298.482   2315355.599  -6121235.822
10 0 59483   7062.000000  0    1823208.496   1539807.215  -6469292.029
10 0 59483   7182.000000  0    1429782.953    744071.370  -6704469.973
10 0 59483   7302.000000  0     997624.407    -57323.803  -6822722.592
10 0 59483   7422.000000  0     534248.836   -849889.339  -6822017.409
10 0 59483   7542.000000  0      47956.847  -1619431.427  -6702365.924
10 0 59483   7662.000000  0    -452310.592  -2352297.837  -6465823.047
10 0 59483   7782.000000  0    -957132.232  -3035614.978  -6116457.524
10 0 59483   7902.000000  0   -1456779.462  -3657511.815  -5660288.854
10 0 59483   8022.000000  0   -1941398.960  -4207325.533  -5105194.090
10 0 59483   8142.000000  0   -2401203.854  -4675788.577  -4460784.320
10 0 59483   8262.000000  0   -2826670.107  -5055192.135  -3738248.957
10 0 59483   8382.000000  0   -3208733.093  -5339521.207  -2950170.189
10 0 59483   8502.000000  0   -3538980.554  -5524559.411  -2110310.541
10 0 59483   8622.000000  0   -3809838.164  -5607960.429  -1233375.473
10 0 59483   8742.000000  0   -4014742.265  -5589283.223   -334754.329
10 0 59483   8862.000000  0   -4148294.500  -5469989.093    569754.984
10 0 59483   8982.000000  0   -4206394.669  -5253400.326   1464231.478
10 0 59483   9102.000000  0   -4186347.968  -4944620.392   2332920.963
10 0 59483   9222.000000  0   -4086943.112  -4550417.625   3160522.342
10 0 59483   9342.000000  0   -3908500.406  -4079076.719   3932464.242
10 0 59483   9462.000000  0   -3652888.185  -3540221.312   4635167.195
10 0 59483   9582.000000  0   -3323507.010  -2944611.442   5256284.527
10 0 59483   9702.000000  0   -2925243.405  -2303923.116   5784917.424
10 0 59483   9822.000000  0   -2464394.147  -1630515.493   6211802.684
10 0 59483   9942.000000  0   -1948563.180   -937189.021   6529471.271
10 0 59483  10062.000000  0   -1386531.398   -236938.189   6732373.835
10 0 59483  10182.000000  0    -788103.976    457292.448   6816969.221
10 0 59483  10302.000000  0    -163939.646   1132845.999   6781782.503
10 0 59483  10422.000000  0     474638.915   1777583.676   6627429.596
10 0 59483  10542.000000  0    1115850.243   2380103.042   6356607.043
10 0 59483  10662.000000  0    1747670.726   2929939.446   5974047.085
10 0 59483  10782.000000  0    2358059.276   3417749.152   5486440.634
10 0 59483  10902.000000  0    2935187.875   3835472.234   4902327.093
10 0 59483  11022.000000  0    3467673.777   4176470.426   4231949.376
10 0 59483  11142.000000  0    3944805.707   4435636.372   3487078.855
10 0 59483  11262.000000  0    4356764.530   4609476.363   2680813.133
10 0 59483  11382.000000  0    4694830.806   4696158.779   1827342.131
10 0 59483  11502.000000  0    4951569.926   4695529.699    941695.415
10 0 59483  11622.000000  0    5120997.844   4609094.536     39471.194
10 0 59483  11742.000000  0    5198716.125   4439964.491   -863448.466
10 0 59483  11862.000000  0    5182014.357   4192770.134  -1751185.654
10 0 59483  11982.000000  0    5069939.677   3873545.029  -2608153.151
10 0 59483  12102.000000  0    4863330.820   3489582.177  -3419333.790
10 0 59483  12222.000000  0    4564815.629   3049268.168  -4170546.396
10 0 59483  12342.000000  0    4178772.891   2561898.783  -4848693.501
10 0 59483  12462.000000  0    3711260.704   2037479.911  -5441985.008
10 0 59483  12582.000000  0    3169913.668   1486520.383  -5940135.122
10 0 59483  12702.000000  0    2563810.789    919821.347  -6334530.650
10 0 59483  12822.000000  0    1903317.967    348265.966  -6618367.887
10 0 59483  12942.000000  0    1199909.871   -217385.790  -6786758.470
10 0 59483  13062.000000  0     465972.078   -766695.611  -6836806.364
10 0 59483  13182.000000  0    -285414.473  -1289735.028  -6767650.752
10 0 59483  13302.000000  0   -1040700.261  -1777259.378  -6580478.510
10 0 59483  13422.000000  0   -1786105.606  -2220867.418  -6278507.215
10 0 59483  13542.000000  0   -2507866.523  -2613144.289  -5866935.412
10 0 59483  13662.000000  0   -3192483.657  -2947784.730  -5352862.652
10 0 59483  13782.000000  0   -3826973.489  -3219696.853  -4745179.644
10 0 59483  13902.000000  0   -4399116.715  -3425083.218  -4054425.348
10 0 59483  14022.000000  0   -4897697.511  -3561496.596  -3292614.228
10 0 59483  14142.000000  0   -5312730.086  -3627870.017  -2473035.116
10 0 59483  14262.000000  0   -5635666.614  -3624519.476  -1610023.299
10 0 59483  14382.000000  0   -5859580.579  -3553118.323   -718710.072
10 0 59483  14502.000000  0   -5979321.268  -3416643.956    185245.761
10 0 59483  14622.000000  0   -5991635.066  -3219297.591   1085939.139
10 0 59483  14742.000000  0   -5895249.125  -2966398.647   1967508.315
10 0 59483  14862.000000  0   -5690913.213  -2664255.202   2814423.913
10 0 59483  14982.000000  0   -5381401.409  -2320015.964   3611769.878
10 0 59483  15102.000000  0   -4971472.986  -1941506.657   4345513.788
10 0 59483  15222.000000  0   -4467791.838  -1537053.781   5002756.907
10 0 59483  15342.000000  0   -3878810.356  -1115303.310   5571959.704
10 0 59483  15462.000000  0   -3214620.640   -685037.438   6043142.366
10 0 59483  15582.000000  0   -2486773.910   -254991.797   6408056.609
10 0 59483  15702.000000  0   -1708072.053    166321.528   6660323.804
10 0 59483  15822.000000  0    -892338.196    570780.359   6795539.353
10 0 59483  15942.000000  0     -54170.105    950807.457   6811344.750
10 0 59483  16062.000000  0     791320.709   1299511.630   6707465.888
10 0 59483  16182.000000  0    1628780.597   1610812.794   6485717.657
10 0 59483  16302.000000  0    2442891.784   1879548.224   6149973.668
10 0 59483  16422.000000  0    3218652.305   2101558.461   5706103.365
99
